CCSDS_OMM_VERS = 2.0
CREATION_DATE  = 
ORIGINATOR     = 

OBJECT_NAME    = STARLINK-35270
OBJECT_ID      = 2025-224A
CENTER_NAME    = EARTH
REF_FRAME      = TEME
TIME_SYSTEM    = UTC
MEAN_ELEMENT_THEORY = SGP/SGP4

EPOCH          = 2025-11-04T02:16:59.207808
MEAN_MOTION    = 15.49336735
ECCENTRICITY   = .0001442
INCLINATION    = 53.1607
RA_OF_ASC_NODE = 236.2584
ARG_OF_PERICENTER = 100.5125
MEAN_ANOMALY   = 259.6046

EPHEMERIS_TYPE = 0
CLASSIFICATION_TYPE = U
NORAD_CAT_ID   = 65882
ELEMENT_SET_NO = 999
REV_AT_EPOCH   = 557
BSTAR          = .99554E-3
MEAN_MOTION_DOT = .55367E-3
MEAN_MOTION_DDOT = 0

CCSDS_OMM_VERS = 2.0
CREATION_DATE  = 
ORIGINATOR     = 

OBJECT_NAME    = STARLINK-35367
OBJECT_ID      = 2025-224B
CENTER_NAME    = EARTH
REF_FRAME      = TEME
TIME_SYSTEM    = UTC
MEAN_ELEMENT_THEORY = SGP/SGP4

EPOCH          = 2025-11-04T02:15:32.815584
MEAN_MOTION    = 15.49862715
ECCENTRICITY   = .0001035
INCLINATION    = 53.1606
RA_OF_ASC_NODE = 236.2537
ARG_OF_PERICENTER = 47.0827
MEAN_ANOMALY   = 313.0269

EPHEMERIS_TYPE = 0
CLASSIFICATION_TYPE = U
NORAD_CAT_ID   = 65883
ELEMENT_SET_NO = 999
REV_AT_EPOCH   = 557
BSTAR          = -.79334E-2
MEAN_MOTION_DOT = -.426697E-2
MEAN_MOTION_DDOT = 0

CCSDS_OMM_VERS = 2.0
CREATION_DATE  = 
ORIGINATOR     = 

OBJECT_NAME    = STARLINK-35384
OBJECT_ID      = 2025-224C
CENTER_NAME    = EARTH
REF_FRAME      = TEME
TIME_SYSTEM    = UTC
MEAN_ELEMENT_THEORY = SGP/SGP4

EPOCH          = 2025-11-04T02:15:00.706752
MEAN_MOTION    = 15.49341872
ECCENTRICITY   = .0001831
INCLINATION    = 53.1600
RA_OF_ASC_NODE = 236.2479
ARG_OF_PERICENTER = 37.6411
MEAN_ANOMALY   = 322.4726

EPHEMERIS_TYPE = 0
CLASSIFICATION_TYPE = U
NORAD_CAT_ID   = 65884
ELEMENT_SET_NO = 999
REV_AT_EPOCH   = 557
BSTAR          = .1322E-2
MEAN_MOTION_DOT = .73864E-3
MEAN_MOTION_DDOT = 0

CCSDS_OMM_VERS = 2.0
CREATION_DATE  = 
ORIGINATOR     = 

OBJECT_NAME    = STARLINK-35415
OBJECT_ID      = 2025-224D
CENTER_NAME    = EARTH
REF_FRAME      = TEME
TIME_SYSTEM    = UTC
MEAN_ELEMENT_THEORY = SGP/SGP4

EPOCH          = 2025-11-04T02:14:01.227264
MEAN_MOTION    = 15.49339338
ECCENTRICITY   = .0001417
INCLINATION    = 53.1606
RA_OF_ASC_NODE = 236.2444
ARG_OF_PERICENTER = 99.8436
MEAN_ANOMALY   = 260.2733

EPHEMERIS_TYPE = 0
CLASSIFICATION_TYPE = U
NORAD_CAT_ID   = 65885
ELEMENT_SET_NO = 999
REV_AT_EPOCH   = 552
BSTAR          = .12525E-2
MEAN_MOTION_DOT = .69914E-3
MEAN_MOTION_DDOT = 0

CCSDS_OMM_VERS = 2.0
CREATION_DATE  = 
ORIGINATOR     = 

OBJECT_NAME    = STARLINK-35413
OBJECT_ID      = 2025-224E
CENTER_NAME    = EARTH
REF_FRAME      = TEME
TIME_SYSTEM    = UTC
MEAN_ELEMENT_THEORY = SGP/SGP4

EPOCH          = 2025-11-04T02:12:37.029600
MEAN_MOTION    = 15.51176901
ECCENTRICITY   = .0019166
INCLINATION    = 53.1615
RA_OF_ASC_NODE = 236.2363
ARG_OF_PERICENTER = 211.4902
MEAN_ANOMALY   = 148.4962

EPHEMERIS_TYPE = 0
CLASSIFICATION_TYPE = U
NORAD_CAT_ID   = 65886
ELEMENT_SET_NO = 999
REV_AT_EPOCH   = 552
BSTAR          = -.43801E-2
MEAN_MOTION_DOT = -.254806E-2
MEAN_MOTION_DDOT = 0

CCSDS_OMM_VERS = 2.0
CREATION_DATE  = 
ORIGINATOR     = 

OBJECT_NAME    = STARLINK-35332
OBJECT_ID      = 2025-224F
CENTER_NAME    = EARTH
REF_FRAME      = TEME
TIME_SYSTEM    = UTC
MEAN_ELEMENT_THEORY = SGP/SGP4

EPOCH          = 2025-11-04T02:12:32.256864
MEAN_MOTION    = 15.49351876
ECCENTRICITY   = .0001504
INCLINATION    = 53.1607
RA_OF_ASC_NODE = 236.2358
ARG_OF_PERICENTER = 96.9222
MEAN_ANOMALY   = 263.1958

EPHEMERIS_TYPE = 0
CLASSIFICATION_TYPE = U
NORAD_CAT_ID   = 65887
ELEMENT_SET_NO = 999
REV_AT_EPOCH   = 560
BSTAR          = .24103E-2
MEAN_MOTION_DOT = .136171E-2
MEAN_MOTION_DDOT = 0

CCSDS_OMM_VERS = 2.0
CREATION_DATE  = 
ORIGINATOR     = 

OBJECT_NAME    = STARLINK-35362
OBJECT_ID      = 2025-224G
CENTER_NAME    = EARTH
REF_FRAME      = TEME
TIME_SYSTEM    = UTC
MEAN_ELEMENT_THEORY = SGP/SGP4

EPOCH          = 2025-11-04T02:16:04.619424
MEAN_MOTION    = 15.50573947
ECCENTRICITY   = .0004608
INCLINATION    = 53.1604
RA_OF_ASC_NODE = 236.2558
ARG_OF_PERICENTER = 225.7772
MEAN_ANOMALY   = 134.2860

EPHEMERIS_TYPE = 0
CLASSIFICATION_TYPE = U
NORAD_CAT_ID   = 65888
ELEMENT_SET_NO = 999
REV_AT_EPOCH   = 557
BSTAR          = -.20178E-2
MEAN_MOTION_DOT = -.116158E-2
MEAN_MOTION_DDOT = 0

CCSDS_OMM_VERS = 2.0
CREATION_DATE  = 
ORIGINATOR     = 

OBJECT_NAME    = STARLINK-35193
OBJECT_ID      = 2025-224H
CENTER_NAME    = EARTH
REF_FRAME      = TEME
TIME_SYSTEM    = UTC
MEAN_ELEMENT_THEORY = SGP/SGP4

EPOCH          = 2025-11-04T01:43:03.133056
MEAN_MOTION    = 15.49327787
ECCENTRICITY   = .0001113
INCLINATION    = 53.1605
RA_OF_ASC_NODE = 236.0971
ARG_OF_PERICENTER = 80.5689
MEAN_ANOMALY   = 279.5446

EPHEMERIS_TYPE = 0
CLASSIFICATION_TYPE = U
NORAD_CAT_ID   = 65889
ELEMENT_SET_NO = 999
REV_AT_EPOCH   = 560
BSTAR          = .75362E-3
MEAN_MOTION_DOT = .41717E-3
MEAN_MOTION_DDOT = 0

CCSDS_OMM_VERS = 2.0
CREATION_DATE  = 
ORIGINATOR     = 

OBJECT_NAME    = STARLINK-34542
OBJECT_ID      = 2025-224J
CENTER_NAME    = EARTH
REF_FRAME      = TEME
TIME_SYSTEM    = UTC
MEAN_ELEMENT_THEORY = SGP/SGP4

EPOCH          = 2025-11-04T02:15:30.406752
MEAN_MOTION    = 15.49333216
ECCENTRICITY   = .0001821
INCLINATION    = 53.1605
RA_OF_ASC_NODE = 236.2482
ARG_OF_PERICENTER = 55.1504
MEAN_ANOMALY   = 304.9676

EPHEMERIS_TYPE = 0
CLASSIFICATION_TYPE = U
NORAD_CAT_ID   = 65890
ELEMENT_SET_NO = 999
REV_AT_EPOCH   = 562
BSTAR          = .1651E-2
MEAN_MOTION_DOT = .9255E-3
MEAN_MOTION_DDOT = 0

CCSDS_OMM_VERS = 2.0
CREATION_DATE  = 
ORIGINATOR     = 

OBJECT_NAME    = STARLINK-34791
OBJECT_ID      = 2025-224K
CENTER_NAME    = EARTH
REF_FRAME      = TEME
TIME_SYSTEM    = UTC
MEAN_ELEMENT_THEORY = SGP/SGP4

EPOCH          = 2025-11-04T01:44:02.484672
MEAN_MOTION    = 15.49341081
ECCENTRICITY   = .0001293
INCLINATION    = 53.1621
RA_OF_ASC_NODE = 236.1029
ARG_OF_PERICENTER = 80.1025
MEAN_ANOMALY   = 280.0130

EPHEMERIS_TYPE = 0
CLASSIFICATION_TYPE = U
NORAD_CAT_ID   = 65891
ELEMENT_SET_NO = 999
REV_AT_EPOCH   = 562
BSTAR          = .67785E-3
MEAN_MOTION_DOT = .37475E-3
MEAN_MOTION_DDOT = 0

CCSDS_OMM_VERS = 2.0
CREATION_DATE  = 
ORIGINATOR     = 

OBJECT_NAME    = STARLINK-34853
OBJECT_ID      = 2025-224L
CENTER_NAME    = EARTH
REF_FRAME      = TEME
TIME_SYSTEM    = UTC
MEAN_ELEMENT_THEORY = SGP/SGP4

EPOCH          = 2025-11-04T04:00:01.998720
MEAN_MOTION    = 15.49307427
ECCENTRICITY   = .0001122
INCLINATION    = 53.1598
RA_OF_ASC_NODE = 235.8964
ARG_OF_PERICENTER = 94.0070
MEAN_ANOMALY   = 315.0623

EPHEMERIS_TYPE = 0
CLASSIFICATION_TYPE = U
NORAD_CAT_ID   = 65892
ELEMENT_SET_NO = 999
REV_AT_EPOCH   = 563
BSTAR          = -.80437E-3
MEAN_MOTION_DOT = -.44925E-3
MEAN_MOTION_DDOT = 0

CCSDS_OMM_VERS = 2.0
CREATION_DATE  = 
ORIGINATOR     = 

OBJECT_NAME    = STARLINK-34921
OBJECT_ID      = 2025-224M
CENTER_NAME    = EARTH
REF_FRAME      = TEME
TIME_SYSTEM    = UTC
MEAN_ELEMENT_THEORY = SGP/SGP4

EPOCH          = 2025-11-04T01:42:33.508224
MEAN_MOTION    = 15.49340886
ECCENTRICITY   = .0001414
INCLINATION    = 53.1620
RA_OF_ASC_NODE = 236.0953
ARG_OF_PERICENTER = 80.1055
MEAN_ANOMALY   = 280.0113

EPHEMERIS_TYPE = 0
CLASSIFICATION_TYPE = U
NORAD_CAT_ID   = 65893
ELEMENT_SET_NO = 999
REV_AT_EPOCH   = 562
BSTAR          = .15521E-2
MEAN_MOTION_DOT = .86936E-3
MEAN_MOTION_DDOT = 0

