STARLINK-35270          
1 65882U 25224A   25308.09512972  .00055367  00000+0  99554-3 0  9997
2 65882  53.1607 236.2584 0001442 100.5125 259.6046 15.49336735  5573
STARLINK-35367          
1 65883U 25224B   25308.09412981 -.00426697  00000+0 -79334-2 0  9990
2 65883  53.1606 236.2537 0001035  47.0827 313.0269 15.49862715  5577
STARLINK-35384          
1 65884U 25224C   25308.09375818  .00073864  00000+0  13220-2 0  9992
2 65884  53.1600 236.2479 0001831  37.6411 322.4726 15.49341872  5573
STARLINK-35415          
1 65885U 25224D   25308.09306976  .00069914  00000+0  12525-2 0  9990
2 65885  53.1606 236.2444 0001417  99.8436 260.2733 15.49339338  5525
STARLINK-35413          
1 65886U 25224E   25308.09209525 -.00254806  00000+0 -43801-2 0  9992
2 65886  53.1615 236.2363 0019166 211.4902 148.4962 15.51176901  5525
STARLINK-35332          
1 65887U 25224F   25308.09204001  .00136171  00000+0  24103-2 0  9993
2 65887  53.1607 236.2358 0001504  96.9222 263.1958 15.49351876  5601
STARLINK-35362          
1 65888U 25224G   25308.09449791 -.00116158  00000+0 -20178-2 0  9994
2 65888  53.1604 236.2558 0004608 225.7772 134.2860 15.50573947  5574
STARLINK-35193          
1 65889U 25224H   25308.07156404  .00041717  00000+0  75362-3 0  9991
2 65889  53.1605 236.0971 0001113  80.5689 279.5446 15.49327787  5609
STARLINK-34542          
1 65890U 25224J   25308.09410193  .00092550  00000+0  16510-2 0  9993
2 65890  53.1605 236.2482 0001821  55.1504 304.9676 15.49333216  5624
STARLINK-34791          
1 65891U 25224K   25308.07225098  .00037475  00000+0  67785-3 0  9996
2 65891  53.1621 236.1029 0001293  80.1025 280.0130 15.49341081  5626
STARLINK-34853          
1 65892U 25224L   25308.16668980 -.00044925  00000+0 -80437-3 0  9997
2 65892  53.1598 235.8964 0001122  94.0070 315.0623 15.49307427  5632
STARLINK-34921          
1 65893U 25224M   25308.07122116  .00086936  00000+0  15521-2 0  9991
2 65893  53.1620 236.0953 0001414  80.1055 280.0113 15.49340886  5623
